{
  "type": "FeatureCollection",
  "features": [
    {
      "type": "Feature",
      "properties": {
        "norad_id": 36585,
        "name": "GPS BIIF-1  (PRN 25)",
        "group": "gnss",
        "lat": -27.10977170970723,
        "lon": -165.94320656041003,
        "alt_km": 20236.861340982185,
        "timestamp": "2025-12-23T09:49:07.324764+00:00",
        "meta_object_name": "GPS BIIF-1  (PRN 25)",
        "meta_object_id": "2010-022A",
        "meta_epoch": "2025-12-22T16:51:10.735776",
        "meta_mean_motion": 2.00553722,
        "meta_eccentricity": 0.01265064,
        "meta_inclination": 54.2986,
        "meta_ra_of_asc_node": 215.6721,
        "meta_arg_of_pericenter": 65.2014,
        "meta_mean_anomaly": 111.7679,
        "meta_ephemeris_type": 0,
        "meta_classification_type": "U",
        "meta_norad_cat_id": 36585,
        "meta_element_set_no": 999,
        "meta_rev_at_epoch": 11405,
        "meta_bstar": 0,
        "meta_mean_motion_dot": 7.3e-07,
        "meta_mean_motion_ddot": 0,
        "tle_line1": "1 36585U 10022A   25356.70220759  .00000073  00000+0  00000+0 0  9993",
        "tle_line2": "2 36585  54.2986 215.6721 0126506  65.2014 111.7679  2.00553722114054"
      },
      "geometry": {
        "type": "Point",
        "coordinates": [
          -165.94320656041003,
          -27.10977170970723
        ]
      }
    },
    {
      "type": "Feature",
      "properties": {
        "norad_id": 36828,
        "name": "BEIDOU-2 IGSO-1 (C06)",
        "group": "gnss",
        "lat": -2.1877659845541055,
        "lon": -13.887083645377404,
        "alt_km": 35600.23230904773,
        "timestamp": "2025-12-23T09:49:07.324776+00:00",
        "meta_object_name": "BEIDOU-2 IGSO-1 (C06)",
        "meta_object_id": "2010-036A",
        "meta_epoch": "2025-12-20T21:47:26.739168",
        "meta_mean_motion": 1.00282395,
        "meta_eccentricity": 0.0051798,
        "meta_inclination": 54.2882,
        "meta_ra_of_asc_node": 164.5739,
        "meta_arg_of_pericenter": 215.2932,
        "meta_mean_anomaly": 144.6604,
        "meta_ephemeris_type": 0,
        "meta_classification_type": "U",
        "meta_norad_cat_id": 36828,
        "meta_element_set_no": 999,
        "meta_rev_at_epoch": 5631,
        "meta_bstar": 0,
        "meta_mean_motion_dot": -5.5e-07,
        "meta_mean_motion_ddot": 0,
        "tle_line1": "1 36828U 10036A   25354.90794837 -.00000055  00000+0  00000+0 0  9992",
        "tle_line2": "2 36828  54.2882 164.5739 0051798 215.2932 144.6604  1.00282395 56317"
      },
      "geometry": {
        "type": "Point",
        "coordinates": [
          -13.887083645377404,
          -2.1877659845541055
        ]
      }
    },
    {
      "type": "Feature",
      "properties": {
        "norad_id": 37210,
        "name": "BEIDOU-2 G4 (C04)",
        "group": "gnss",
        "lat": -1.6071533894189247,
        "lon": 39.68273287816485,
        "alt_km": 35818.053761682124,
        "timestamp": "2025-12-23T09:49:07.324789+00:00",
        "meta_object_name": "BEIDOU-2 G4 (C04)",
        "meta_object_id": "2010-057A",
        "meta_epoch": "2025-12-22T22:29:08.375136",
        "meta_mean_motion": 1.00271821,
        "meta_eccentricity": 0.00104,
        "meta_inclination": 3.2083,
        "meta_ra_of_asc_node": 69.8997,
        "meta_arg_of_pericenter": 193.4522,
        "meta_mean_anomaly": 325.7523,
        "meta_ephemeris_type": 0,
        "meta_classification_type": "U",
        "meta_norad_cat_id": 37210,
        "meta_element_set_no": 999,
        "meta_rev_at_epoch": 5552,
        "meta_bstar": 0,
        "meta_mean_motion_dot": -9.2e-07,
        "meta_mean_motion_ddot": 0,
        "tle_line1": "1 37210U 10057A   25356.93690249 -.00000092  00000+0  00000+0 0  9999",
        "tle_line2": "2 37210   3.2083  69.8997 0010400 193.4522 325.7523  1.00271821 55526"
      },
      "geometry": {
        "type": "Point",
        "coordinates": [
          39.68273287816485,
          -1.6071533894189247
        ]
      }
    },
    {
      "type": "Feature",
      "properties": {
        "norad_id": 37256,
        "name": "BEIDOU-2 IGSO-2 (C07)",
        "group": "gnss",
        "lat": 45.23035293061576,
        "lon": -20.385594740195355,
        "alt_km": 35941.3681822403,
        "timestamp": "2025-12-23T09:49:07.324801+00:00",
        "meta_object_name": "BEIDOU-2 IGSO-2 (C07)",
        "meta_object_id": "2010-068A",
        "meta_epoch": "2025-12-22T18:34:33.319200",
        "meta_mean_motion": 1.00283389,
        "meta_eccentricity": 0.00485799,
        "meta_inclination": 47.8675,
        "meta_ra_of_asc_node": 274.0264,
        "meta_arg_of_pericenter": 216.371,
        "meta_mean_anomaly": 347.8143,
        "meta_ephemeris_type": 0,
        "meta_classification_type": "U",
        "meta_norad_cat_id": 37256,
        "meta_element_set_no": 999,
        "meta_rev_at_epoch": 5502,
        "meta_bstar": 0,
        "meta_mean_motion_dot": -1.86e-06,
        "meta_mean_motion_ddot": 0,
        "tle_line1": "1 37256U 10068A   25356.77399675 -.00000186  00000+0  00000+0 0  9996",
        "tle_line2": "2 37256  47.8675 274.0264 0048579 216.3710 347.8143  1.00283389 55026"
      },
      "geometry": {
        "type": "Point",
        "coordinates": [
          -20.385594740195355,
          45.23035293061576
        ]
      }
    },
    {
      "type": "Feature",
      "properties": {
        "norad_id": 37384,
        "name": "BEIDOU-2 IGSO-3 (C08)",
        "group": "gnss",
        "lat": -46.24991346680254,
        "lon": 8.357702627802693,
        "alt_km": 35861.19554370881,
        "timestamp": "2025-12-23T09:49:07.324813+00:00",
        "meta_object_name": "BEIDOU-2 IGSO-3 (C08)",
        "meta_object_id": "2011-013A",
        "meta_epoch": "2025-12-22T13:40:14.018880",
        "meta_mean_motion": 1.00268611,
        "meta_eccentricity": 0.00353737,
        "meta_inclination": 62.1558,
        "meta_ra_of_asc_node": 41.8231,
        "meta_arg_of_pericenter": 187.5329,
        "meta_mean_anomaly": 174.3937,
        "meta_ephemeris_type": 0,
        "meta_classification_type": "U",
        "meta_norad_cat_id": 37384,
        "meta_element_set_no": 999,
        "meta_rev_at_epoch": 5389,
        "meta_bstar": 0,
        "meta_mean_motion_dot": -1.6e-06,
        "meta_mean_motion_ddot": 0,
        "tle_line1": "1 37384U 11013A   25356.56960670 -.00000160  00000+0  00000+0 0  9997",
        "tle_line2": "2 37384  62.1558  41.8231 0035373 187.5329 174.3937  1.00268611 53893"
      },
      "geometry": {
        "type": "Point",
        "coordinates": [
          8.357702627802693,
          -46.24991346680254
        ]
      }
    },
    {
      "type": "Feature",
      "properties": {
        "norad_id": 37605,
        "name": "GSAT-8 (GAGAN/PRN 127)",
        "group": "gnss",
        "lat": -0.8739318946363107,
        "lon": -65.42382183348174,
        "alt_km": 35752.129158420765,
        "timestamp": "2025-12-23T09:49:07.324825+00:00",
        "meta_object_name": "GSAT-8 (GAGAN/PRN 127)",
        "meta_object_id": "2011-022A",
        "meta_epoch": "2025-12-22T20:16:28.578144",
        "meta_mean_motion": 1.00271064,
        "meta_eccentricity": 0.00088835,
        "meta_inclination": 1.6742,
        "meta_ra_of_asc_node": 84.0894,
        "meta_arg_of_pericenter": 185.8143,
        "meta_mean_anomaly": 180.9285,
        "meta_ephemeris_type": 0,
        "meta_classification_type": "U",
        "meta_norad_cat_id": 37605,
        "meta_element_set_no": 999,
        "meta_rev_at_epoch": 5145,
        "meta_bstar": 0,
        "meta_mean_motion_dot": 1.05e-06,
        "meta_mean_motion_ddot": 0,
        "tle_line1": "1 37605U 11022A   25356.84477521  .00000105  00000+0  00000+0 0  9990",
        "tle_line2": "2 37605   1.6742  84.0894 0008883 185.8143 180.9285  1.00271064 51452"
      },
      "geometry": {
        "type": "Point",
        "coordinates": [
          -65.42382183348174,
          -0.8739318946363107
        ]
      }
    },
    {
      "type": "Feature",
      "properties": {
        "norad_id": 37763,
        "name": "BEIDOU-2 IGSO-4 (C09)",
        "group": "gnss",
        "lat": 11.811439215581714,
        "lon": -21.32885119756963,
        "alt_km": 35506.87999312495,
        "timestamp": "2025-12-23T09:49:07.324837+00:00",
        "meta_object_name": "BEIDOU-2 IGSO-4 (C09)",
        "meta_object_id": "2011-038A",
        "meta_epoch": "2025-12-21T10:06:26.864064",
        "meta_mean_motion": 1.00280083,
        "meta_eccentricity": 0.01491557,
        "meta_inclination": 54.5854,
        "meta_ra_of_asc_node": 167.2693,
        "meta_arg_of_pericenter": 230.0944,
        "meta_mean_anomaly": 299.1265,
        "meta_ephemeris_type": 0,
        "meta_classification_type": "U",
        "meta_norad_cat_id": 37763,
        "meta_element_set_no": 999,
        "meta_rev_at_epoch": 5286,
        "meta_bstar": 0,
        "meta_mean_motion_dot": 5.9e-07,
        "meta_mean_motion_ddot": 0,
        "tle_line1": "1 37763U 11038A   25355.42114426  .00000059  00000+0  00000+0 0  9995",
        "tle_line2": "2 37763  54.5854 167.2693 0149155 230.0944 299.1265  1.00280083 52867"
      },
      "geometry": {
        "type": "Point",
        "coordinates": [
          -21.32885119756963,
          11.811439215581714
        ]
      }
    }
  ]
}